NAVSTAR 77 (USA 289)    
1 43873U 18109A   24036.47580041 -.00000011  00000+0  00000+0 0  9999
2 43873  55.2455 126.2736 0028759 193.3710 173.8475  2.00573589 37773
